start=new Date('2023-04-17T00:00:00.000Z').valueOf();
sats=[{"BSTAR":"0.00147130000000","SEMIMAJOR_AXIS":"6925.311","GP_ID":"230194281","TLE_LINE1":"1 46796U 20074BK  23106.72749873  .00021709  00000-0  14713-2 0  9991","TLE_LINE2":"2 46796  53.0553  20.9937 0001999 106.4626 253.6583 15.06412122137353","ELEMENT_SET_NO":"999","RCS_SIZE":"LARGE","CENTER_NAME":"EARTH","FILE":"3888799","OBJECT_TYPE":"PAYLOAD","PERIAPSIS":"545.792","MEAN_MOTION_DDOT":"0.0000000000000","INCLINATION":"53.0553","ARG_OF_PERICENTER":"106.4626","TIME_SYSTEM":"UTC","EPHEMERIS_TYPE":"0","PERIOD":"95.591","EPOCH":"2023-04-16T17:27:35.890272","MEAN_ANOMALY":"253.6583","ECCENTRICITY":"0.00019990","OBJECT_ID":"2020-074BK","REV_AT_EPOCH":"13735","NORAD_CAT_ID":"46796","MEAN_ELEMENT_THEORY":"SGP4","RA_OF_ASC_NODE":"20.9937","REF_FRAME":"TEME","DECAY_DATE":null,"COUNTRY_CODE":"US","OBJECT_NAME":"STARLINK-1944","SITE":"AFETR","APOAPSIS":"548.561","MEAN_MOTION":"15.06412122","LAUNCH_DATE":"2020-10-24","CLASSIFICATION_TYPE":"U","MEAN_MOTION_DOT":"0.00021709"},{"SITE":"AFETR","APOAPSIS":"547.767","MEAN_MOTION":"15.06449025","LAUNCH_DATE":"2020-10-24","CLASSIFICATION_TYPE":"U","MEAN_MOTION_DOT":"0.00036099","NORAD_CAT_ID":"46798","REV_AT_EPOCH":"13667","MEAN_ELEMENT_THEORY":"SGP4","RA_OF_ASC_NODE":"48.2325","REF_FRAME":"TEME","DECAY_DATE":null,"OBJECT_NAME":"STARLINK-1948","COUNTRY_CODE":"US","FILE":"3888626","CENTER_NAME":"EARTH","ELEMENT_SET_NO":"999","RCS_SIZE":"LARGE","PERIAPSIS":"546.360","OBJECT_TYPE":"PAYLOAD","INCLINATION":"53.0551","MEAN_MOTION_DDOT":"0.0000000000000","TIME_SYSTEM":"UTC","ARG_OF_PERICENTER":"104.3856","EPHEMERIS_TYPE":"0","PERIOD":"95.589","MEAN_ANOMALY":"255.7246","ECCENTRICITY":"0.00010160","EPOCH":"2023-04-16T05:29:00.736800","OBJECT_ID":"2020-074BM","BSTAR":"0.00242680000000","SEMIMAJOR_AXIS":"6925.198","GP_ID":"230163534","TLE_LINE1":"1 46798U 20074BM  23106.22848075  .00036099  00000-0  24268-2 0  9996","TLE_LINE2":"2 46798  53.0551  48.2325 0001016 104.3856 255.7246 15.06449025136674"},{"MEAN_MOTION_DOT":"0.00026903","LAUNCH_DATE":"2020-11-25","CLASSIFICATION_TYPE":"U","MEAN_MOTION":"15.06394027","SITE":"AFETR","APOAPSIS":"548.076","COUNTRY_CODE":"US","OBJECT_NAME":"STARLINK-1777","DECAY_DATE":null,"RA_OF_ASC_NODE":"10.1661","REF_FRAME":"TEME","REV_AT_EPOCH":"13240","NORAD_CAT_ID":"47122","MEAN_ELEMENT_THEORY":"SGP4","MEAN_ANOMALY":"284.6297","PERIOD":"95.593","ECCENTRICITY":"0.00012190","EPOCH":"2023-04-16T21:54:19.816704","OBJECT_ID":"2020-088A","TIME_SYSTEM":"UTC","ARG_OF_PERICENTER":"75.4828","EPHEMERIS_TYPE":"0","MEAN_MOTION_DDOT":"0.0000000000000","INCLINATION":"53.0555","FILE":"3888799","CENTER_NAME":"EARTH","ELEMENT_SET_NO":"999","RCS_SIZE":"LARGE","PERIAPSIS":"546.388","OBJECT_TYPE":"PAYLOAD","TLE_LINE1":"1 47122U 20088A   23106.91272936  .00026903  00000-0  18184-2 0  9999","TLE_LINE2":"2 47122  53.0555  10.1661 0001219  75.4828 284.6297 15.06394027132408","GP_ID":"230194312","BSTAR":"0.00181840000000","SEMIMAJOR_AXIS":"6925.367"},{"GP_ID":"230195060","BSTAR":"0.00145700000000","SEMIMAJOR_AXIS":"6925.428","TLE_LINE1":"1 47124U 20088C   23106.89936159  .00021472  00000-0  14570-2 0  9993","TLE_LINE2":"2 47124  53.0553  15.2317 0001328 128.1451 231.9658 15.06374030132331","INCLINATION":"53.0553","MEAN_MOTION_DDOT":"0.0000000000000","ELEMENT_SET_NO":"999","RCS_SIZE":"LARGE","FILE":"3888799","CENTER_NAME":"EARTH","PERIAPSIS":"546.373","OBJECT_TYPE":"PAYLOAD","EPOCH":"2023-04-16T21:35:04.841376","PERIOD":"95.594","MEAN_ANOMALY":"231.9658","ECCENTRICITY":"0.00013280","OBJECT_ID":"2020-088C","TIME_SYSTEM":"UTC","ARG_OF_PERICENTER":"128.1451","EPHEMERIS_TYPE":"0","RA_OF_ASC_NODE":"15.2317","REF_FRAME":"TEME","NORAD_CAT_ID":"47124","REV_AT_EPOCH":"13233","MEAN_ELEMENT_THEORY":"SGP4","COUNTRY_CODE":"US","OBJECT_NAME":"STARLINK-1785","DECAY_DATE":null,"MEAN_MOTION":"15.06374030","SITE":"AFETR","APOAPSIS":"548.213","MEAN_MOTION_DOT":"0.00021472","LAUNCH_DATE":"2020-11-25","CLASSIFICATION_TYPE":"U"},{"MEAN_MOTION_DOT":"0.00001908","CLASSIFICATION_TYPE":"U","LAUNCH_DATE":"2020-11-25","MEAN_MOTION":"15.06361629","APOAPSIS":"548.105","SITE":"AFETR","OBJECT_NAME":"STARLINK-1812","COUNTRY_CODE":"US","DECAY_DATE":null,"REF_FRAME":"TEME","RA_OF_ASC_NODE":"10.3461","MEAN_ELEMENT_THEORY":"SGP4","NORAD_CAT_ID":"47126","REV_AT_EPOCH":"13240","OBJECT_ID":"2020-088E","PERIOD":"95.595","MEAN_ANOMALY":"311.4847","ECCENTRICITY":"0.00011170","EPOCH":"2023-04-16T20:55:54.383808","EPHEMERIS_TYPE":"0","ARG_OF_PERICENTER":"48.6238","TIME_SYSTEM":"UTC","MEAN_MOTION_DDOT":"0.0000000000000","INCLINATION":"53.0560","PERIAPSIS":"546.558","OBJECT_TYPE":"PAYLOAD","CENTER_NAME":"EARTH","FILE":"3888799","RCS_SIZE":"LARGE","ELEMENT_SET_NO":"999","TLE_LINE2":"2 47126  53.0560  10.3461 0001117  48.6238 311.4847 15.06361629132404","TLE_LINE1":"1 47126U 20088E   23106.87215722  .00001908  00000-0  14710-3 0  9998","GP_ID":"230195812","SEMIMAJOR_AXIS":"6925.466","BSTAR":"0.00014710000000"},{"EPHEMERIS_TYPE":"0","ARG_OF_PERICENTER":"86.6607","TIME_SYSTEM":"UTC","OBJECT_ID":"2020-088G","PERIOD":"95.595","MEAN_ANOMALY":"273.4504","ECCENTRICITY":"0.00010700","EPOCH":"2023-04-16T21:30:26.161632","PERIAPSIS":"546.625","OBJECT_TYPE":"PAYLOAD","RCS_SIZE":"LARGE","ELEMENT_SET_NO":"999","FILE":"3888799","CENTER_NAME":"EARTH","INCLINATION":"53.0550","MEAN_MOTION_DDOT":"0.0000000000000","TLE_LINE2":"2 47128  53.0550 350.2408 0001070  86.6607 273.4504 15.06350401132685","TLE_LINE1":"1 47128U 20088G   23106.89613613  .00047577  00000-0  31957-2 0  9996","SEMIMAJOR_AXIS":"6925.501","BSTAR":"0.00319570000000","GP_ID":"230195524","CLASSIFICATION_TYPE":"U","LAUNCH_DATE":"2020-11-25","MEAN_MOTION_DOT":"0.00047577","APOAPSIS":"548.107","SITE":"AFETR","MEAN_MOTION":"15.06350401","DECAY_DATE":null,"COUNTRY_CODE":"US","OBJECT_NAME":"STARLINK-1837","MEAN_ELEMENT_THEORY":"SGP4","NORAD_CAT_ID":"47128","REV_AT_EPOCH":"13268","REF_FRAME":"TEME","RA_OF_ASC_NODE":"350.2408"},{"NORAD_CAT_ID":"47129","REV_AT_EPOCH":"13254","MEAN_ELEMENT_THEORY":"SGP4","RA_OF_ASC_NODE":"0.4048","REF_FRAME":"TEME","DECAY_DATE":null,"COUNTRY_CODE":"US","OBJECT_NAME":"STARLINK-1838","SITE":"AFETR","APOAPSIS":"547.960","MEAN_MOTION":"15.06354608","LAUNCH_DATE":"2020-11-25","CLASSIFICATION_TYPE":"U","MEAN_MOTION_DOT":"0.00000848","BSTAR":"0.00007588900000","SEMIMAJOR_AXIS":"6925.488","GP_ID":"230194813","TLE_LINE1":"1 47129U 20088H   23106.85834478  .00000848  00000-0  75889-4 0  9991","TLE_LINE2":"2 47129  53.0548   0.4048 0000877 125.9756 234.1315 15.06354608132545","RCS_SIZE":"LARGE","ELEMENT_SET_NO":"999","CENTER_NAME":"EARTH","FILE":"3888799","PERIAPSIS":"546.745","OBJECT_TYPE":"PAYLOAD","INCLINATION":"53.0548","MEAN_MOTION_DDOT":"0.0000000000000","ARG_OF_PERICENTER":"125.9756","TIME_SYSTEM":"UTC","EPHEMERIS_TYPE":"0","EPOCH":"2023-04-16T20:36:00.988992","PERIOD":"95.595","MEAN_ANOMALY":"234.1315","ECCENTRICITY":"0.00008770","OBJECT_ID":"2020-088H"},{"BSTAR":"0.00152640000000","SEMIMAJOR_AXIS":"6683.853","GP_ID":"230195560","TLE_LINE1":"1 47130U 20088J   23106.91667824  .00463731  00000-0  15264-2 0  9992","TLE_LINE2":"2 47130  53.0400 310.0347 0006308 235.4850 359.1734 15.88775164  1309","ELEMENT_SET_NO":"999","RCS_SIZE":"LARGE","CENTER_NAME":"EARTH","FILE":"3888799","OBJECT_TYPE":"PAYLOAD","PERIAPSIS":"301.502","MEAN_MOTION_DDOT":"0.0000000000000","INCLINATION":"53.0400","ARG_OF_PERICENTER":"235.4850","TIME_SYSTEM":"UTC","EPHEMERIS_TYPE":"0","PERIOD":"90.636","MEAN_ANOMALY":"359.1734","ECCENTRICITY":"0.00063080","EPOCH":"2023-04-16T22:00:00.999936","OBJECT_ID":"2020-088J","NORAD_CAT_ID":"47130","REV_AT_EPOCH":"130","MEAN_ELEMENT_THEORY":"SGP4","RA_OF_ASC_NODE":"310.0347","REF_FRAME":"TEME","DECAY_DATE":null,"OBJECT_NAME":"STARLINK-1839","COUNTRY_CODE":"US","SITE":"AFETR","APOAPSIS":"309.934","MEAN_MOTION":"15.88775164","LAUNCH_DATE":"2020-11-25","CLASSIFICATION_TYPE":"U","MEAN_MOTION_DOT":"0.00463731"},{"REF_FRAME":"TEME","RA_OF_ASC_NODE":"0.4379","MEAN_ELEMENT_THEORY":"SGP4","REV_AT_EPOCH":"13253","NORAD_CAT_ID":"47133","OBJECT_NAME":"STARLINK-1843","COUNTRY_CODE":"US","DECAY_DATE":null,"MEAN_MOTION":"15.06359349","APOAPSIS":"549.362","SITE":"AFETR","MEAN_MOTION_DOT":"0.00003662","CLASSIFICATION_TYPE":"U","LAUNCH_DATE":"2020-11-25","GP_ID":"230195314","SEMIMAJOR_AXIS":"6925.473","BSTAR":"0.00026492000000","TLE_LINE2":"2 47133  53.0554   0.4379 0002923 203.6658 156.4197 15.06359349132533","TLE_LINE1":"1 47133U 20088M   23106.85090851  .00003662  00000-0  26492-3 0  9997","INCLINATION":"53.0554","MEAN_MOTION_DDOT":"0.0000000000000","OBJECT_TYPE":"PAYLOAD","PERIAPSIS":"545.314","CENTER_NAME":"EARTH","FILE":"3888799","RCS_SIZE":"LARGE","ELEMENT_SET_NO":"999","OBJECT_ID":"2020-088M","PERIOD":"95.595","EPOCH":"2023-04-16T20:25:18.495264","MEAN_ANOMALY":"156.4197","ECCENTRICITY":"0.00029230","EPHEMERIS_TYPE":"0","TIME_SYSTEM":"UTC","ARG_OF_PERICENTER":"203.6658"},{"TLE_LINE1":"1 47134U 20088N   23106.89061791  .00032853  00000-0  22156-2 0  9999","TLE_LINE2":"2 47134  53.0563  10.2616 0001298 105.8137 254.2995 15.06376292132401","GP_ID":"230196024","BSTAR":"0.00221560000000","SEMIMAJOR_AXIS":"6925.421","PERIOD":"95.594","MEAN_ANOMALY":"254.2995","EPOCH":"2023-04-16T21:22:29.387424","ECCENTRICITY":"0.00012980","OBJECT_ID":"2020-088N","TIME_SYSTEM":"UTC","ARG_OF_PERICENTER":"105.8137","EPHEMERIS_TYPE":"0","MEAN_MOTION_DDOT":"0.0000000000000","INCLINATION":"53.0563","RCS_SIZE":"LARGE","ELEMENT_SET_NO":"999","FILE":"3888799","CENTER_NAME":"EARTH","PERIAPSIS":"546.387","OBJECT_TYPE":"PAYLOAD","OBJECT_NAME":"STARLINK-1844","COUNTRY_CODE":"US","DECAY_DATE":null,"RA_OF_ASC_NODE":"10.2616","REF_FRAME":"TEME","REV_AT_EPOCH":"13240","NORAD_CAT_ID":"47134","MEAN_ELEMENT_THEORY":"SGP4","MEAN_MOTION_DOT":"0.00032853","LAUNCH_DATE":"2020-11-25","CLASSIFICATION_TYPE":"U","MEAN_MOTION":"15.06376292","SITE":"AFETR","APOAPSIS":"548.185"}];
